ONEWEB-0116             
1 48046U 21025E   24228.38407181  .00000361  00000+0  95360-3 0  9997
2 48046  87.8883  93.7075 0001695  74.7096 285.4221 13.13469121165592
ONEWEB-0150             
1 48047U 21025F   24228.35867177 -.00000162  00000+0 -47762-3 0  9994
2 48047  87.8875  93.7278 0001898  83.1374 276.9971 13.13469129165480
ONEWEB-0107             
1 48048U 21025G   24228.36026262 -.00000176  00000+0 -51704-3 0  9994
2 48048  87.8876  93.7255 0002002  86.7688 273.3670 13.13469907165461
ONEWEB-0101             
1 48049U 21025H   24228.17140920  .00000210  00000+0  53977-3 0  9993
2 48049  87.8885  93.7831 0001686  82.6096 277.5224 13.13468353165417
ONEWEB-0113             
1 48050U 21025J   24228.37771785 -.00001810  00000+0 -49905-2 0  9990
2 48050  87.8871  93.7225 0001848  62.5319 297.5998 13.13480290165522
ONEWEB-0112             
1 48051U 21025K   24228.36502381 -.00000033  00000+0 -12562-3 0  9990
2 48051  87.8876  93.7220 0001840  79.5083 280.6253 13.13471477165536
ONEWEB-0156             
1 48052U 21025L   24228.37454565  .00000183  00000+0  46589-3 0  9992
2 48052  87.8879  93.7197 0001822  80.7099 279.4236 13.13471643165514
ONEWEB-0161             
1 48053U 21025M   24228.34756987 -.00000201  00000+0 -58617-3 0  9991
2 48053  87.8889  93.7327 0001741  84.9561 275.1767 13.13470381165443
